OBJECT_NAME,OBJECT_ID,EPOCH,MEAN_MOTION,ECCENTRICITY,INCLINATION,RA_OF_ASC_NODE,ARG_OF_PERICENTER,MEAN_ANOMALY,EPHEMERIS_TYPE,CLASSIFICATION_TYPE,NORAD_CAT_ID,ELEMENT_SET_NO,REV_AT_EPOCH,BSTAR,MEAN_MOTION_DOT,MEAN_MOTION_DDOT
LASARSAT,2024-247Q,2026-06-12T01:35:26.614464,15.46059259,.00084039,44.9753,290.9829,302.5447,57.4631,0,U,62391,999,8252,.64660115E-3,.32134E-3,0
CROCUBE,2024-247T,2026-06-12T06:20:01.926816,15.47921042,.00082607,44.9724,287.2870,307.3288,52.6849,0,U,62394,999,8258,.76592407E-3,.40736E-3,0
TEVEL2-4,2025-052D,2026-06-12T05:25:55.785504,15.34441293,.00047313,97.3917,59.6110,112.7549,247.4195,0,U,63213,999,6935,.59032813E-3,.19646E-3,0
TEVEL2-5,2025-052E,2026-06-12T04:20:44.162880,15.34269187,.00046298,97.3921,59.5143,114.2395,245.9332,0,U,63214,999,6934,.60653612E-3,.20078E-3,0
TEVEL2-6,2025-052F,2026-06-12T04:38:19.599360,15.34232330,.00045055,97.3921,59.5115,113.2672,246.9046,0,U,63215,999,6934,.61027656E-3,.20179E-3,0
TEVEL2-1,2025-052H,2026-06-11T23:01:50.060352,15.33693147,.00045093,97.3891,58.9077,123.4340,236.7334,0,U,63217,999,6929,.49545202E-3,.16082E-3,0
TEVEL2-3,2025-052J,2026-06-12T05:10:10.853760,15.33760310,.00044986,97.3892,59.1848,123.1530,237.0145,0,U,63218,999,6933,.58756477E-3,.19135E-3,0
TEVEL2-2,2025-052K,2026-06-11T23:02:19.638528,15.33701780,.00044495,97.3890,58.9106,123.8478,236.3189,0,U,63219,999,6929,.50082788E-3,.16262E-3,0
TEVEL2-9,2025-052AD,2026-06-12T04:36:24.619968,15.31748226,.00072884,97.3947,58.5267,144.2630,215.9100,0,U,63237,999,6926,.58279521E-3,.17823E-3,0
TEVEL2-7,2025-052AE,2026-06-11T15:27:08.309088,15.31438086,.0007384,97.3956,57.8996,146.6025,213.5683,0,U,63238,999,6917,.50452758E-3,.15266E-3,0
TEVEL2-8,2025-052AF,2026-06-12T04:11:39.798816,15.31439720,.00074755,97.3951,58.4063,146.0802,214.0919,0,U,63239,999,6925,.55488137E-3,.16802E-3,0
FORESAIL-1 PRIME,2025-276DS,2026-06-12T04:28:50.095488,15.18657242,.00038644,97.4203,236.5489,113.4472,246.7169,0,U,66778,999,2964,.22324714E-3,.4559E-4,0
